00038    8.48  0.15 K2555 122.41782  169.73419  295.49606    6.95128  0.1509406  0.21702616   2.7423823  0 E2025-DG3  4107  67 1856-2025 0.78 M-v 3Ek MPCLINUX   0000     (38) Leda               20250224
00039    5.97  0.15 K2555  51.11973  210.11595  156.90359   10.36979  0.1124359  0.21379706   2.7699264  0 E2025-C34 11653  92 1856-2025 0.56 M-v 3Ek MPCLINUX   0000     (39) Laetitia           20250202
00040    6.55  0.15 K2555  22.93684  269.47054   94.15595    4.25591  0.0460364  0.28876127   2.2669577  0 MPO887287 10193  79 1860-2024 0.59 M-v 3Ek MPCLINUX   0000     (40) Harmonia           20241211
00041    7.59  0.15 K2555 245.83088   46.71014  177.72710   15.72196  0.2708132  0.21380174   2.7698860  0 E2025-D47  7038  69 1866-2025 0.60 M-v 3Ek MPCLINUX   0000     (41) Daphne             20250220
00042    7.71  0.15 K2555  51.56522  237.27312   84.16549    8.51130  0.2219134  0.25820681   2.4424420  0 MPO887287  8002  79 1856-2024 0.53 M-v 3Ek MPCLINUX   0000     (42) Isis               20241218
00043    7.96  0.15 K2555  81.24122   16.11003  264.74585    3.47074  0.1683732  0.30145459   2.2028662  0 MPO887287  3447  80 1864-2024 0.79 M-v 3Ek MPCLINUX   0000     (43) Ariadne            20241208
00044    6.75  0.15 K2555 296.70957  344.12061  131.48659    3.71221  0.1496909  0.26144562   2.4222286  0 E2025-B54  8091  85 1864-2025 0.51 M-v 3Ek MPCLINUX   0000     (44) Nysa               20250121
00045    7.77  0.15 K2555 162.57569   87.32094  147.57873    6.60546  0.0827964  0.21971003   2.7200035  0 E2025-C09 11875  80 1866-2025 0.50 M-v 3Ek MPCLINUX   0000     (45) Eugenia            20250201
00046    8.54  0.15 K2555 250.64036  177.05993  181.06591    2.35138  0.1720222  0.24553322   2.5257820  0 E2025-DG3  5082  82 1864-2025 0.77 M-v 3Ek MPCLINUX   0000     (46) Hestia             20250224
00047    8.17  0.15 K2555 134.07230  316.13767    2.79480    4.96598  0.1321169  0.20124492   2.8839392  0 E2025-DG3  5454  78 1860-2025 0.74 M-v 3Ek MPCLINUX   0000     (47) Aglaja             20250224
00048    7.13  0.15 K2555 105.97926  251.21995  183.43072    6.55846  0.0664039  0.17951126   3.1122532  0 E2025-CG0  4099  96 1860-2025 0.82 M-v 3Ek MPCLINUX   0000     (48) Doris              20250210
00049    8.02  0.15 K2555 276.86252  113.41381  284.98711    3.20160  0.2215719  0.18069234   3.0986763  0 E2024-TS2  8609  85 1863-2024 0.58 M-v 3Ek MPCLINUX   0000     (49) Pales              20241011
00050    9.47  0.15 K2555 300.97942  200.06254  173.45132    2.83892  0.2846696  0.22826546   2.6516076  0 MPO840811  7496  71 1857-2024 0.58 M-v 3Ek MPCLINUX   0000     (50) Virginia           20240712
00051    7.74  0.15 K2555 332.43721    2.20392  175.88085    9.97290  0.0659197  0.27090051   2.3655357  0 E2025-C64 11345  92 1863-2025 0.58 M-v 3Ek MPCLINUX   0000     (51) Nemausa            20250206